start=new Date('2023-01-04T00:00:00.000Z').valueOf();
sats=[{"NORAD_CAT_ID":"48583","SITE":"AFETR","SEMIMAJOR_AXIS":"6925.332","TIME_SYSTEM":"UTC","TLE_LINE1":"1 48583U 21041AG  23003.35993127  .00008150  00000-0  56535-3 0  9994","MEAN_ELEMENT_THEORY":"SGP4","BSTAR":"0.00056535000000","INCLINATION":"53.0552","DECAY_DATE":null,"OBJECT_TYPE":"PAYLOAD","OBJECT_ID":"2021-041AG","PERIAPSIS":"545.915","GP_ID":"222112753","REV_AT_EPOCH":"9002","MEAN_MOTION":"15.06405431","MEAN_ANOMALY":"308.7391","EPOCH":"2023-01-03T08:38:18.061728","RA_OF_ASC_NODE":"315.0327","REF_FRAME":"TEME","ELEMENT_SET_NO":"999","LAUNCH_DATE":"2021-05-15","CLASSIFICATION_TYPE":"U","PERIOD":"95.592","TLE_LINE2":"2 48583  53.0552 315.0327 0001851  51.3763 308.7391 15.06405431 90022","OBJECT_NAME":"STARLINK-2237","EPHEMERIS_TYPE":"0","MEAN_MOTION_DOT":"0.00008150","APOAPSIS":"548.479","COUNTRY_CODE":"US","ECCENTRICITY":"0.00018510","ARG_OF_PERICENTER":"51.3763","MEAN_MOTION_DDOT":"0.0000000000000","FILE":"3730926","CENTER_NAME":"EARTH","RCS_SIZE":"LARGE"},{"MEAN_MOTION_DDOT":"0.0000000000000","ARG_OF_PERICENTER":"38.8184","CENTER_NAME":"EARTH","FILE":"3730926","RCS_SIZE":"LARGE","MEAN_MOTION_DOT":"0.00002906","EPHEMERIS_TYPE":"0","OBJECT_NAME":"STARLINK-2238","APOAPSIS":"548.744","COUNTRY_CODE":"US","ECCENTRICITY":"0.00021460","LAUNCH_DATE":"2021-05-15","CLASSIFICATION_TYPE":"U","PERIOD":"95.593","TLE_LINE2":"2 48584  53.0544 315.1542 0002146  38.8184 321.2959 15.06385458 90014","EPOCH":"2023-01-03T08:01:09.939648","RA_OF_ASC_NODE":"315.1542","ELEMENT_SET_NO":"999","REF_FRAME":"TEME","GP_ID":"222111523","PERIAPSIS":"545.772","REV_AT_EPOCH":"9001","MEAN_MOTION":"15.06385458","MEAN_ANOMALY":"321.2959","DECAY_DATE":null,"INCLINATION":"53.0544","OBJECT_TYPE":"PAYLOAD","OBJECT_ID":"2021-041AH","TLE_LINE1":"1 48584U 21041AH  23003.33414282  .00002906  00000-0  21397-3 0  9994","TIME_SYSTEM":"UTC","MEAN_ELEMENT_THEORY":"SGP4","BSTAR":"0.00021397000000","SITE":"AFETR","NORAD_CAT_ID":"48584","SEMIMAJOR_AXIS":"6925.393"},{"MEAN_ANOMALY":"309.7694","MEAN_MOTION":"15.06390862","PERIAPSIS":"545.894","GP_ID":"222111773","REV_AT_EPOCH":"8998","OBJECT_ID":"2021-041AJ","OBJECT_TYPE":"PAYLOAD","INCLINATION":"53.0566","DECAY_DATE":null,"BSTAR":"0.00013821000000","MEAN_ELEMENT_THEORY":"SGP4","TIME_SYSTEM":"UTC","TLE_LINE1":"1 48585U 21041AJ  23003.14614360  .00001777  00000-0  13821-3 0  9991","SEMIMAJOR_AXIS":"6925.377","NORAD_CAT_ID":"48585","SITE":"AFETR","RCS_SIZE":"LARGE","FILE":"3730926","CENTER_NAME":"EARTH","ARG_OF_PERICENTER":"50.3467","MEAN_MOTION_DDOT":"0.0000000000000","ECCENTRICITY":"0.00019460","COUNTRY_CODE":"US","APOAPSIS":"548.589","OBJECT_NAME":"STARLINK-2240","MEAN_MOTION_DOT":"0.00001777","EPHEMERIS_TYPE":"0","TLE_LINE2":"2 48585  53.0566 316.0053 0001946  50.3467 309.7694 15.06390862 89982","PERIOD":"95.593","CLASSIFICATION_TYPE":"U","LAUNCH_DATE":"2021-05-15","REF_FRAME":"TEME","ELEMENT_SET_NO":"999","RA_OF_ASC_NODE":"316.0053","EPOCH":"2023-01-03T03:30:26.807040"},{"COUNTRY_CODE":"US","ECCENTRICITY":"0.00019260","OBJECT_NAME":"STARLINK-2241","MEAN_MOTION_DOT":"0.00016191","EPHEMERIS_TYPE":"0","APOAPSIS":"548.499","RCS_SIZE":"MEDIUM","MEAN_MOTION_DDOT":"0.0000000000000","ARG_OF_PERICENTER":"46.5592","CENTER_NAME":"EARTH","FILE":"3730926","REF_FRAME":"TEME","ELEMENT_SET_NO":"999","RA_OF_ASC_NODE":"315.1319","EPOCH":"2023-01-03T08:06:26.890272","PERIOD":"95.591","TLE_LINE2":"2 48586  53.0558 315.1319 0001926  46.5592 313.5557 15.06415693 90010","CLASSIFICATION_TYPE":"U","LAUNCH_DATE":"2021-05-15","OBJECT_TYPE":"PAYLOAD","OBJECT_ID":"2021-041AK","DECAY_DATE":null,"INCLINATION":"53.0558","MEAN_ANOMALY":"313.5557","GP_ID":"222112023","REV_AT_EPOCH":"9001","PERIAPSIS":"545.832","MEAN_MOTION":"15.06415693","SEMIMAJOR_AXIS":"6925.300","NORAD_CAT_ID":"48586","SITE":"AFETR","MEAN_ELEMENT_THEORY":"SGP4","BSTAR":"0.00110290000000","TIME_SYSTEM":"UTC","TLE_LINE1":"1 48586U 21041AK  23003.33781123  .00016191  00000-0  11029-2 0  9998"},{"ELEMENT_SET_NO":"999","REF_FRAME":"TEME","RA_OF_ASC_NODE":"315.4148","EPOCH":"2023-01-03T06:36:12.068352","PERIOD":"95.589","TLE_LINE2":"2 48587  53.0541 315.4148 0002370  66.5700 293.5538 15.06445375 90008","LAUNCH_DATE":"2021-05-15","CLASSIFICATION_TYPE":"U","COUNTRY_CODE":"US","ECCENTRICITY":"0.00023700","MEAN_MOTION_DOT":"0.00029658","EPHEMERIS_TYPE":"0","OBJECT_NAME":"STARLINK-2242","APOAPSIS":"548.716","RCS_SIZE":"LARGE","MEAN_MOTION_DDOT":"0.0000000000000","ARG_OF_PERICENTER":"66.5700","FILE":"3730926","CENTER_NAME":"EARTH","SEMIMAJOR_AXIS":"6925.209","SITE":"AFETR","NORAD_CAT_ID":"48587","MEAN_ELEMENT_THEORY":"SGP4","BSTAR":"0.00199910000000","TLE_LINE1":"1 48587U 21041AL  23003.27513968  .00029658  00000-0  19991-2 0  9990","TIME_SYSTEM":"UTC","OBJECT_TYPE":"PAYLOAD","OBJECT_ID":"2021-041AL","INCLINATION":"53.0541","DECAY_DATE":null,"MEAN_ANOMALY":"293.5538","REV_AT_EPOCH":"9000","GP_ID":"222112253","PERIAPSIS":"545.433","MEAN_MOTION":"15.06445375"},{"RA_OF_ASC_NODE":"304.3230","EPOCH":"2023-01-03T12:27:51.323328","REF_FRAME":"TEME","ELEMENT_SET_NO":"999","LAUNCH_DATE":"2021-05-15","CLASSIFICATION_TYPE":"U","PERIOD":"95.592","TLE_LINE2":"2 48588  53.0533 304.3230 0001385  76.6589 283.4554 15.06396510 90182","OBJECT_NAME":"STARLINK-2244","EPHEMERIS_TYPE":"0","MEAN_MOTION_DOT":"0.00001425","APOAPSIS":"548.183","COUNTRY_CODE":"US","ECCENTRICITY":"0.00013850","MEAN_MOTION_DDOT":"0.0000000000000","ARG_OF_PERICENTER":"76.6589","FILE":"3730926","CENTER_NAME":"EARTH","RCS_SIZE":"LARGE","NORAD_CAT_ID":"48588","SITE":"AFETR","SEMIMAJOR_AXIS":"6925.359","TIME_SYSTEM":"UTC","TLE_LINE1":"1 48588U 21041AM  23003.51934402  .00001425  00000-0  11457-3 0  9990","MEAN_ELEMENT_THEORY":"SGP4","BSTAR":"0.00011457000000","DECAY_DATE":null,"INCLINATION":"53.0533","OBJECT_TYPE":"PAYLOAD","OBJECT_ID":"2021-041AM","REV_AT_EPOCH":"9018","GP_ID":"222111023","PERIAPSIS":"546.265","MEAN_MOTION":"15.06396510","MEAN_ANOMALY":"283.4554"},{"SEMIMAJOR_AXIS":"6925.342","NORAD_CAT_ID":"48589","SITE":"AFETR","BSTAR":"0.00062293000000","MEAN_ELEMENT_THEORY":"SGP4","TIME_SYSTEM":"UTC","TLE_LINE1":"1 48589U 21041AN  23003.11757965  .00009010  00000-0  62293-3 0  9996","OBJECT_ID":"2021-041AN","OBJECT_TYPE":"PAYLOAD","INCLINATION":"53.0541","DECAY_DATE":null,"MEAN_ANOMALY":"308.4871","MEAN_MOTION":"15.06402269","GP_ID":"222111273","PERIAPSIS":"545.837","REV_AT_EPOCH":"9012","REF_FRAME":"TEME","ELEMENT_SET_NO":"999","RA_OF_ASC_NODE":"306.1224","EPOCH":"2023-01-03T02:49:18.881760","TLE_LINE2":"2 48589  53.0541 306.1224 0001977  51.6296 308.4871 15.06402269 90123","PERIOD":"95.592","CLASSIFICATION_TYPE":"U","LAUNCH_DATE":"2021-05-15","ECCENTRICITY":"0.00019770","COUNTRY_CODE":"US","APOAPSIS":"548.576","OBJECT_NAME":"STARLINK-2245","EPHEMERIS_TYPE":"0","MEAN_MOTION_DOT":"0.00009010","RCS_SIZE":"LARGE","CENTER_NAME":"EARTH","FILE":"3730926","MEAN_MOTION_DDOT":"0.0000000000000","ARG_OF_PERICENTER":"51.6296"},{"ELEMENT_SET_NO":"999","REF_FRAME":"TEME","EPOCH":"2023-01-03T05:37:48.131904","RA_OF_ASC_NODE":"305.5982","PERIOD":"95.592","TLE_LINE2":"2 48591  53.0535 305.5982 0001461  91.6169 268.4988 15.06394460 91043","LAUNCH_DATE":"2021-05-15","CLASSIFICATION_TYPE":"U","COUNTRY_CODE":"US","ECCENTRICITY":"0.00014610","EPHEMERIS_TYPE":"0","MEAN_MOTION_DOT":"0.00002842","OBJECT_NAME":"STARLINK-2248","APOAPSIS":"548.242","RCS_SIZE":"LARGE","ARG_OF_PERICENTER":"91.6169","MEAN_MOTION_DDOT":"0.0000000000000","CENTER_NAME":"EARTH","FILE":"3730926","SEMIMAJOR_AXIS":"6925.366","SITE":"AFETR","NORAD_CAT_ID":"48591","MEAN_ELEMENT_THEORY":"SGP4","BSTAR":"0.00020964000000","TLE_LINE1":"1 48591U 21041AQ  23003.23458486  .00002842  00000-0  20964-3 0  9993","TIME_SYSTEM":"UTC","OBJECT_TYPE":"PAYLOAD","OBJECT_ID":"2021-041AQ","INCLINATION":"53.0535","DECAY_DATE":null,"MEAN_ANOMALY":"268.4988","REV_AT_EPOCH":"9104","GP_ID":"222112524","PERIAPSIS":"546.219","MEAN_MOTION":"15.06394460"},{"TIME_SYSTEM":"UTC","TLE_LINE1":"1 48592U 21041AR  23003.24472901  .00005654  00000-0  39822-3 0  9990","BSTAR":"0.00039822000000","MEAN_ELEMENT_THEORY":"SGP4","NORAD_CAT_ID":"48592","SITE":"AFETR","SEMIMAJOR_AXIS":"6925.358","MEAN_MOTION":"15.06397047","PERIAPSIS":"545.677","GP_ID":"222112754","REV_AT_EPOCH":"9000","MEAN_ANOMALY":"314.4013","INCLINATION":"53.0547","DECAY_DATE":null,"OBJECT_ID":"2021-041AR","OBJECT_TYPE":"PAYLOAD","LAUNCH_DATE":"2021-05-15","CLASSIFICATION_TYPE":"U","TLE_LINE2":"2 48592  53.0547 315.5919 0002232  45.7159 314.4013 15.06397047 90004","PERIOD":"95.592","EPOCH":"2023-01-03T05:52:24.586464","RA_OF_ASC_NODE":"315.5919","REF_FRAME":"TEME","ELEMENT_SET_NO":"999","FILE":"3730926","CENTER_NAME":"EARTH","MEAN_MOTION_DDOT":"0.0000000000000","ARG_OF_PERICENTER":"45.7159","RCS_SIZE":"MEDIUM","APOAPSIS":"548.768","OBJECT_NAME":"STARLINK-2249","EPHEMERIS_TYPE":"0","MEAN_MOTION_DOT":"0.00005654","ECCENTRICITY":"0.00022320","COUNTRY_CODE":"US"},{"APOAPSIS":"548.417","OBJECT_NAME":"STARLINK-2250","EPHEMERIS_TYPE":"0","MEAN_MOTION_DOT":"0.00013115","ECCENTRICITY":"0.00017700","COUNTRY_CODE":"US","CENTER_NAME":"EARTH","FILE":"3730926","ARG_OF_PERICENTER":"62.3885","MEAN_MOTION_DDOT":"0.0000000000000","RCS_SIZE":"LARGE","EPOCH":"2023-01-03T05:59:04.547616","RA_OF_ASC_NODE":"315.5345","REF_FRAME":"TEME","ELEMENT_SET_NO":"999","CLASSIFICATION_TYPE":"U","LAUNCH_DATE":"2021-05-15","TLE_LINE2":"2 48593  53.0517 315.5345 0001770  62.3885 297.7283 15.06407301 90009","PERIOD":"95.592","DECAY_DATE":null,"INCLINATION":"53.0517","OBJECT_ID":"2021-041AS","OBJECT_TYPE":"PAYLOAD","MEAN_MOTION":"15.06407301","REV_AT_EPOCH":"9000","GP_ID":"222111524","PERIAPSIS":"545.965","MEAN_ANOMALY":"297.7283","NORAD_CAT_ID":"48593","SITE":"AFETR","SEMIMAJOR_AXIS":"6925.326","TIME_SYSTEM":"UTC","TLE_LINE1":"1 48593U 21041AS  23003.24935819  .00013115  00000-0  89755-3 0  9994","BSTAR":"0.00089755000000","MEAN_ELEMENT_THEORY":"SGP4"}];
